LANDSAT 9               
1 49260U 21088A   24195.81459188  .00000824  00000+0  19301-3 0  9995
2 49260  98.2307 265.0679 0001321  94.1948 265.9402 14.57101127148560
